COSMOS 2251 DEB         
1 38060U 93036BRS 24360.41391018  .00005882  00000+0  11673-2 0  9992
2 38060  74.0435 250.2345 0060033  88.0160 272.7880 14.61261720668136
COSMOS 2251 DEB         
1 38062U 93036BRU 24360.51939904  .00033327  00000+0  45522-2 0  9992
2 38062  74.0151 272.4627 0019912 147.9349  26.0856 14.78303118577965
COSMOS 2251 DEB         
1 38064U 93036BRW 24359.94463780  .00008389  00000+0  20149-2 0  9991
2 38064  74.0254  72.1505 0052570 279.3478  80.1741 14.52675316667352
COSMOS 2251 DEB         
1 38067U 93036BRZ 24359.42008637  .00003449  00000+0  71013-3 0  9992
2 38067  74.0180 229.8397 0072220 106.2437  66.4358 14.59272153573985
COSMOS 2251 DEB         
1 38068U 93036BSA 24359.92290200  .00001498  00000+0  53105-3 0  9991
2 38068  74.0208 236.1292 0024936  50.5025 309.8327 14.35197907615835
COSMOS 2251 DEB         
1 38190U 93036BSE 24360.26346424  .00074975  00000+0  77033-2 0  9991
2 38190  74.0326 354.6057 0002798 289.3211  70.7667 14.89937727  6137
COSMOS 2251 DEB         
1 38197U 93036BSM 24360.57034917  .00043431  00000+0  79080-2 0  9990
2 38197  73.9434 319.5653 0168342 275.4695  82.7287 14.57041879805951
COSMOS 2251 DEB         
1 38199U 93036BSP 24352.12444416  .00002216  00000+0  17566-2 0  9990
2 38199  73.9574 294.2813 0373486 292.0691  64.1157 13.63909938561036
COSMOS 2251 DEB         
1 38208U 93036BSY 24360.41379575  .00027763  00000+0  47312-2 0  9991
2 38208  74.0130  50.2388 0010698 265.8464 105.5521 14.68867020659598
COSMOS 2251 DEB         
1 38212U 93036BTC 24360.55310719  .00007205  00000+0  10014-2 0  9994
2 38212  74.0564  45.6295 0099082 206.8189 152.7845 14.74646443761130
COSMOS 2251 DEB         
1 38213U 93036BTD 24334.84293994  .00146737  00000+0  10542-1 0  9992
2 38213  74.0298  30.5098 0009814 331.4242  28.6407 15.03457827549361
COSMOS 2251 DEB         
1 38220U 93036BTL 24359.56190538  .00021055  00000+0  32632-2 0  9996
2 38220  74.0234  47.9745 0005375 258.0135 102.0435 14.73110010802550
COSMOS 2251 DEB         
1 38479U 93036BTP 24360.59171128  .00014041  00000+0  48547-2 0  9990
2 38479  74.0099 111.8963 0095182 304.8359  65.9500 14.33233022596332
COSMOS 2251 DEB         
1 38481U 93036BTR 24359.47180229  .00004565  00000+0  28201-2 0  9995
2 38481  73.9337 257.1002 0237822 268.7028  88.6848 13.92608760541387
COSMOS 2251 DEB         
1 38483U 93036BTT 24360.06897369  .00004518  00000+0  17615-2 0  9999
2 38483  74.2623 281.7326 0116361 133.5543 227.5343 14.26272076584452
COSMOS 2251 DEB         
1 38485U 93036BTV 24359.87693710  .00053085  00000+0  47084-2 0  9998
2 38485  74.0065 154.5203 0030574  32.6445 327.6620 14.95561279125503
COSMOS 2251 DEB         
1 38486U 93036BTW 24356.93971815  .00011406  00000+0  23632-2 0  9992
2 38486  73.9472 174.8900 0039545  39.3654 110.7985 14.59805091704495
COSMOS 2251 DEB         
1 38487U 93036BTX 24360.37325497  .00035750  00000+0  33543-2 0  9995
2 38487  73.9921  36.8886 0053869 291.3947  68.1493 14.92709303615021
COSMOS 2251 DEB         
1 39109U 93036BTY 24359.87639279  .00006208  00000+0  10784-2 0  9994
2 39109  74.0431 187.9154 0062100  23.3530  39.9200 14.67105279599922
COSMOS 2251 DEB         
1 39110U 93036BTZ 24355.88588950  .00003732  00000+0  58523-3 0  9995
2 39110  73.9600  38.0629 0101432 353.9106 179.6088 14.69617745572369
COSMOS 2251 DEB         
1 39111U 93036BUA 24360.37585280  .00041100  00000+0  55650-2 0  9997
2 39111  74.0282  31.5996 0006535 227.4698 132.5926 14.78738854 38835
COSMOS 2251 DEB         
1 39546U 93036BUC 24360.07875766  .00019678  00000+0  24963-2 0  9995
2 39546  74.0003 120.2656 0055965   7.0773 353.1180 14.80555099591966
COSMOS 2251 DEB         
1 39547U 93036BUD 24354.76581253  .00018278  00000+0  25977-2 0  9991
2 39547  74.0121  15.4798 0008314 265.1610 214.7444 14.76856733664918
COSMOS 2251 DEB         
1 39552U 93036BUJ 24360.56378309  .01014786  00000+0  11401-1 0  9995
2 39552  73.9778 103.7773 0029473 354.5630   5.5262 15.59319357593797
COSMOS 2251 DEB         
1 39553U 93036BUK 24354.99167948  .00004332  00000+0  25507-2 0  9999
2 39553  74.0270 228.7635 0209634  85.4230 277.0813 13.97832813706147
COSMOS 2251 DEB         
1 39554U 93036BUL 24358.73284826  .00023346  00000+0  27858-2 0  9998
2 39554  74.0247 260.3226 0012465 145.0093 246.2443 14.84128775590919
COSMOS 2251 DEB         
1 39583U 93036BUN 24358.00243384  .00015051  00000+0  31803-2 0  9993
2 39583  73.9337 204.6830 0155740  37.7976 323.4000 14.51976637566150
COSMOS 2251 DEB         
1 39585U 93036BUQ 24354.47693510  .00002028  00000+0  44073-3 0  9996
2 39585  74.0425 262.6289 0067236 116.0675 244.7431 14.57320772792976
COSMOS 2251 DEB         
1 39586U 93036BUR 24360.14716193  .00001704  00000+0  76851-3 0  9990
2 39586  74.0089 140.7605 0103034 356.8368 176.8232 14.20167455559647
COSMOS 2251 DEB         
1 39591U 93036BUW 24359.26765183  .00002899  00000+0  91624-3 0  9991
2 39591  74.0192 181.7787 0029518  21.3497 152.5674 14.40402520566843
COSMOS 2251 DEB         
1 40218U 93036BUX 24360.18546590  .00002896  00000+0  92029-3 0  9998
2 40218  74.0287 181.5368 0016834 353.0473   7.0446 14.40298164537830
COSMOS 2251 DEB         
1 40223U 93036BVC 24359.98769836  .00041945  00000+0  61844-2 0  9998
2 40223  73.9477  75.9709 0032101 329.4926 204.1731 14.74758741541285
COSMOS 2251 DEB         
1 40224U 93036BVD 24357.99551152  .00086200  00000+0  53177-2 0  9991
2 40224  73.9754 194.3315 0058347 213.0269 301.0981 15.08060061546986
COSMOS 2251 DEB         
1 40228U 93036BVH 24355.84552538  .00001475  00000+0  47603-3 0  9995
2 40228  74.0531 199.7605 0023622 351.1165  20.7144 14.39886532537824
COSMOS 2251 DEB         
1 40230U 93036BVK 24359.74131926  .00006585  00000+0  18355-2 0  9993
2 40230  74.0438 167.3116 0019128 312.4457  59.0066 14.46385341538628
COSMOS 2251 DEB         
1 40233U 93036BVN 24359.89266493  .00010496  00000+0  24734-2 0  9994
2 40233  73.9433  56.2254 0050481 213.8968 145.8965 14.53579568705353
COSMOS 2251 DEB         
1 40238U 93036BVT 24350.99592785  .00002812  00000+0  28817-2 0  9996
2 40238  73.9956 258.5244 0561087 299.7798  54.8609 13.23498016680920
COSMOS 2251 DEB         
1 40239U 93036BVU 24359.92387176  .00003751  00000+0  74583-3 0  9990
2 40239  74.0305 230.5380 0087140  71.7948 300.5973 14.60059566544581
COSMOS 2251 DEB         
1 40792U 93036BVV 24359.30474177  .00011300  00000+0  22629-2 0  9996
2 40792  74.0492   6.7510 0019781 212.4287 159.1473 14.61731222580092
COSMOS 2251 DEB         
1 40793U 93036BVW 24353.50994411  .00003382  00000+0  17305-2 0  9997
2 40793  73.9785  74.6402 0221059 308.8623  49.2967 14.04104028632008
COSMOS 2251 DEB         
1 40794U 93036BVX 24360.56041738  .00046549  00000+0  75356-2 0  9999
2 40794  73.9769 101.6611 0027308 315.4067  58.7977 14.70771023567103
COSMOS 2251 DEB         
1 40796U 93036BVZ 24359.61304529  .00012485  00000+0  17865-2 0  9998
2 40796  74.0150 117.2835 0064074 343.1743  27.9031 14.75242710709379
COSMOS 2251 DEB         
1 40797U 93036BWA 24355.60334885  .00016313  00000+0  12299-2 0  9992
2 40797  73.9240 112.8476 0084569 109.8628 262.5712 14.99588328682445
COSMOS 2251 DEB         
1 40799U 93036BWC 24354.58927722  .00006627  00000+0  56953-3 0  9991
2 40799  73.9292 104.9073 0128599  71.2704 290.2382 14.91364020746274
COSMOS 2251 DEB         
1 40802U 93036BWF 24360.09840890  .00010143  00000+0  15246-2 0  9996
2 40802  74.0427 122.4675 0069586 312.9398  46.5948 14.72936367592084
COSMOS 2251 DEB         
1 40803U 93036BWG 24359.27333799  .00003302  00000+0  84548-3 0  9991
2 40803  74.0158 357.8391 0035826 298.6576  61.0984 14.50405158536257
COSMOS 2251 DEB         
1 40808U 93036BWM 24360.06589950  .00017962  00000+0  37597-2 0  9995
2 40808  74.0459 102.3493 0011632 247.5494 285.8134 14.59702055584580
COSMOS 2251 DEB         
1 40810U 93036BWP 24360.34104144  .00007755  00000+0  17885-2 0  9994
2 40810  74.0384  24.1465 0022105 264.2944  95.5699 14.55286566565506
COSMOS 2251 DEB         
1 46271U 93036BWT 24360.33983511  .00003062  00000+0  78669-3 0  9998
2 46271  74.0487  20.4254 0042328 231.3114 128.4258 14.50118562795311
COSMOS 2251 DEB         
1 46430U 93036BWU 24358.54085925  .00018787  00000+0  51195-2 0  9991
2 46430  73.9171 304.4373 0114585 300.5041  58.4841 14.43524057745560
COSMOS 2251 DEB         
1 46432U 93036BWW 24359.64491591  .00000913  00000+0  95607-3 0  9994
2 46432  73.8728 307.3566 0474322 124.7835  46.4239 13.35964579622491
COSMOS 2251 DEB         
1 47045U 93036BWZ 24359.49915547  .00000559  00000+0  19024-3 0  9995
2 47045  74.0596  79.6666 0030520 308.6788  62.7852 14.38608220582158
COSMOS 2251 DEB         
1 47048U 93036BXC 24360.48331831  .00010520  00000+0  25763-2 0  9992
2 47048  73.9788 262.6278 0148096 172.4236   1.0065 14.46079573545869
COSMOS 2251 DEB         
1 47051U 93036BXF 24359.87527815  .00004380  00000+0  35446-2 0  9992
2 47051  74.1024  39.5152 0350078 235.6342 307.2820 13.65536924641153
COSMOS 2251 DEB         
1 47052U 93036BXG 24359.19167207  .00001691  00000+0  59500-3 0  9993
2 47052  74.0505 267.9496 0058852  70.4391  80.0754 14.34649377567174
COSMOS 2251 DEB         
1 47053U 93036BXH 24349.74488490  .00001294  00000+0  11165-2 0  9997
2 47053  74.0583 120.9555 0384755  14.1306  49.5260 13.58269856239577
COSMOS 2251 DEB         
1 47059U 93036BXP 24358.37207383  .00034151  00000+0  40343-2 0  9990
2 47059  73.9951 234.5064 0026473 130.1316 347.5799 14.84261839 30027
COSMOS 2251 DEB         
1 47061U 93036BXR 24359.33346113  .00034981  00000+0  38100-2 0  9994
2 47061  74.0079 195.3239 0039732 153.3163  20.0932 14.87256313590690
COSMOS 2251 DEB         
1 47062U 93036BXS 24360.59633715  .00003031  00000+0  23739-2 0  9996
2 47062  74.0828 298.2255 0324714 145.4432  26.5618 13.70475647507753
COSMOS 2251 DEB         
1 47068U 93036BXY 24360.14000183  .00009306  00000+0  24409-2 0  9996
2 47068  74.0254 147.5434 0020155 322.7789  37.1972 14.49204817566419
